CCSDS_OMM_VERS = 2.0
CREATION_DATE  = 
ORIGINATOR     = 

OBJECT_NAME    = COSMOS 2228
OBJECT_ID      = 1992-094A
CENTER_NAME    = EARTH
REF_FRAME      = TEME
TIME_SYSTEM    = UTC
MEAN_ELEMENT_THEORY = SGP/SGP4

EPOCH          = 2025-11-27T05:54:49.658976
MEAN_MOTION    = 14.96620448
ECCENTRICITY   = .00163953
INCLINATION    = 82.5177
RA_OF_ASC_NODE = 335.3596
ARG_OF_PERICENTER = 288.7107
MEAN_ANOMALY   = 71.2336

EPHEMERIS_TYPE = 0
CLASSIFICATION_TYPE = U
NORAD_CAT_ID   = 22286
ELEMENT_SET_NO = 999
REV_AT_EPOCH   = 76073
BSTAR          = .22663911E-3
MEAN_MOTION_DOT = .2614E-4
MEAN_MOTION_DDOT = 0

CCSDS_OMM_VERS = 2.0
CREATION_DATE  = 
ORIGINATOR     = 

OBJECT_NAME    = SL-16 R/B
OBJECT_ID      = 1993-016B
CENTER_NAME    = EARTH
REF_FRAME      = TEME
TIME_SYSTEM    = UTC
MEAN_ELEMENT_THEORY = SGP/SGP4

EPOCH          = 2025-11-27T07:08:08.891232
MEAN_MOTION    = 14.15289097
ECCENTRICITY   = .00081487
INCLINATION    = 71.0090
RA_OF_ASC_NODE = 70.2351
ARG_OF_PERICENTER = 126.7583
MEAN_ANOMALY   = 233.4289

EPHEMERIS_TYPE = 0
CLASSIFICATION_TYPE = U
NORAD_CAT_ID   = 22566
ELEMENT_SET_NO = 999
REV_AT_EPOCH   = 68768
BSTAR          = .26970874E-4
MEAN_MOTION_DOT = .5E-7
MEAN_MOTION_DDOT = 0

CCSDS_OMM_VERS = 2.0
CREATION_DATE  = 
ORIGINATOR     = 

OBJECT_NAME    = COSMOS 2242
OBJECT_ID      = 1993-024A
CENTER_NAME    = EARTH
REF_FRAME      = TEME
TIME_SYSTEM    = UTC
MEAN_ELEMENT_THEORY = SGP/SGP4

EPOCH          = 2025-11-27T04:27:07.715808
MEAN_MOTION    = 14.96011329
ECCENTRICITY   = .00148659
INCLINATION    = 82.5199
RA_OF_ASC_NODE = 4.7111
ARG_OF_PERICENTER = 291.9660
MEAN_ANOMALY   = 67.9981

EPHEMERIS_TYPE = 0
CLASSIFICATION_TYPE = U
NORAD_CAT_ID   = 22626
ELEMENT_SET_NO = 999
REV_AT_EPOCH   = 76506
BSTAR          = .2389862E-3
MEAN_MOTION_DOT = .2711E-4
MEAN_MOTION_DDOT = 0

CCSDS_OMM_VERS = 2.0
CREATION_DATE  = 
ORIGINATOR     = 

OBJECT_NAME    = SL-16 R/B
OBJECT_ID      = 1993-059B
CENTER_NAME    = EARTH
REF_FRAME      = TEME
TIME_SYSTEM    = UTC
MEAN_ELEMENT_THEORY = SGP/SGP4

EPOCH          = 2025-11-26T23:48:55.514880
MEAN_MOTION    = 14.17207930
ECCENTRICITY   = .00170312
INCLINATION    = 70.9897
RA_OF_ASC_NODE = 227.6917
ARG_OF_PERICENTER = 358.9464
MEAN_ANOMALY   = 1.1621

EPHEMERIS_TYPE = 0
CLASSIFICATION_TYPE = U
NORAD_CAT_ID   = 22803
ELEMENT_SET_NO = 999
REV_AT_EPOCH   = 66498
BSTAR          = -.19081001E-4
MEAN_MOTION_DOT = -.87E-6
MEAN_MOTION_DDOT = 0

CCSDS_OMM_VERS = 2.0
CREATION_DATE  = 
ORIGINATOR     = 

OBJECT_NAME    = ARIANE 40 R/B
OBJECT_ID      = 1993-061H
CENTER_NAME    = EARTH
REF_FRAME      = TEME
TIME_SYSTEM    = UTC
MEAN_ELEMENT_THEORY = SGP/SGP4

EPOCH          = 2025-11-27T04:26:22.446528
MEAN_MOTION    = 14.32786055
ECCENTRICITY   = .00100165
INCLINATION    = 98.5095
RA_OF_ASC_NODE = 36.9967
ARG_OF_PERICENTER = 223.0314
MEAN_ANOMALY   = 137.0088

EPHEMERIS_TYPE = 0
CLASSIFICATION_TYPE = U
NORAD_CAT_ID   = 22830
ELEMENT_SET_NO = 999
REV_AT_EPOCH   = 67942
BSTAR          = .11656841E-3
MEAN_MOTION_DOT = .274E-5
MEAN_MOTION_DDOT = 0

CCSDS_OMM_VERS = 2.0
CREATION_DATE  = 
ORIGINATOR     = 

OBJECT_NAME    = COSMOS 2278
OBJECT_ID      = 1994-023A
CENTER_NAME    = EARTH
REF_FRAME      = TEME
TIME_SYSTEM    = UTC
MEAN_ELEMENT_THEORY = SGP/SGP4

EPOCH          = 2025-11-27T04:31:31.689408
MEAN_MOTION    = 14.14349702
ECCENTRICITY   = .0009257
INCLINATION    = 71.0558
RA_OF_ASC_NODE = 29.5456
ARG_OF_PERICENTER = 200.9639
MEAN_ANOMALY   = 159.1106

EPHEMERIS_TYPE = 0
CLASSIFICATION_TYPE = U
NORAD_CAT_ID   = 23087
ELEMENT_SET_NO = 999
REV_AT_EPOCH   = 63031
BSTAR          = .94535116E-4
MEAN_MOTION_DOT = .134E-5
MEAN_MOTION_DDOT = 0

CCSDS_OMM_VERS = 2.0
CREATION_DATE  = 
ORIGINATOR     = 

OBJECT_NAME    = SL-16 R/B
OBJECT_ID      = 1994-023B
CENTER_NAME    = EARTH
REF_FRAME      = TEME
TIME_SYSTEM    = UTC
MEAN_ELEMENT_THEORY = SGP/SGP4

EPOCH          = 2025-11-27T06:45:51.621408
MEAN_MOTION    = 14.14993146
ECCENTRICITY   = .00011069
INCLINATION    = 70.9995
RA_OF_ASC_NODE = 285.9473
ARG_OF_PERICENTER = 105.6410
MEAN_ANOMALY   = 254.4835

EPHEMERIS_TYPE = 0
CLASSIFICATION_TYPE = U
NORAD_CAT_ID   = 23088
ELEMENT_SET_NO = 999
REV_AT_EPOCH   = 63160
BSTAR          = .15950025E-3
MEAN_MOTION_DOT = .261E-5
MEAN_MOTION_DDOT = 0

CCSDS_OMM_VERS = 2.0
CREATION_DATE  = 
ORIGINATOR     = 

OBJECT_NAME    = SL-16 R/B
OBJECT_ID      = 1994-074B
CENTER_NAME    = EARTH
REF_FRAME      = TEME
TIME_SYSTEM    = UTC
MEAN_ELEMENT_THEORY = SGP/SGP4

EPOCH          = 2025-11-27T01:02:58.443936
MEAN_MOTION    = 14.79262576
ECCENTRICITY   = .00063608
INCLINATION    = 97.7220
RA_OF_ASC_NODE = 0.9710
ARG_OF_PERICENTER = 183.2349
MEAN_ANOMALY   = 206.9467

EPHEMERIS_TYPE = 0
CLASSIFICATION_TYPE = U
NORAD_CAT_ID   = 23343
ELEMENT_SET_NO = 999
REV_AT_EPOCH   = 67207
BSTAR          = .88060862E-4
MEAN_MOTION_DOT = .605E-5
MEAN_MOTION_DDOT = 0

CCSDS_OMM_VERS = 2.0
CREATION_DATE  = 
ORIGINATOR     = 

OBJECT_NAME    = SL-16 R/B
OBJECT_ID      = 1994-077B
CENTER_NAME    = EARTH
REF_FRAME      = TEME
TIME_SYSTEM    = UTC
MEAN_ELEMENT_THEORY = SGP/SGP4

EPOCH          = 2025-11-26T22:48:02.794176
MEAN_MOTION    = 14.15546838
ECCENTRICITY   = .00045735
INCLINATION    = 70.9818
RA_OF_ASC_NODE = 208.6305
ARG_OF_PERICENTER = 296.5750
MEAN_ANOMALY   = 63.4904

EPHEMERIS_TYPE = 0
CLASSIFICATION_TYPE = U
NORAD_CAT_ID   = 23405
ELEMENT_SET_NO = 999
REV_AT_EPOCH   = 60169
BSTAR          = -.98969784E-4
MEAN_MOTION_DOT = -.242E-5
MEAN_MOTION_DDOT = 0

CCSDS_OMM_VERS = 2.0
CREATION_DATE  = 
ORIGINATOR     = 

OBJECT_NAME    = ARIANE 40+ R/B
OBJECT_ID      = 1995-021B
CENTER_NAME    = EARTH
REF_FRAME      = TEME
TIME_SYSTEM    = UTC
MEAN_ELEMENT_THEORY = SGP/SGP4

EPOCH          = 2025-11-27T03:53:48.330816
MEAN_MOTION    = 14.39677263
ECCENTRICITY   = .00079068
INCLINATION    = 98.4668
RA_OF_ASC_NODE = 38.9380
ARG_OF_PERICENTER = 90.6794
MEAN_ANOMALY   = 297.9613

EPHEMERIS_TYPE = 0
CLASSIFICATION_TYPE = U
NORAD_CAT_ID   = 23561
ELEMENT_SET_NO = 999
REV_AT_EPOCH   = 60449
BSTAR          = .1349923E-3
MEAN_MOTION_DOT = .379E-5
MEAN_MOTION_DDOT = 0

CCSDS_OMM_VERS = 2.0
CREATION_DATE  = 
ORIGINATOR     = 

OBJECT_NAME    = SL-16 R/B
OBJECT_ID      = 1995-058B
CENTER_NAME    = EARTH
REF_FRAME      = TEME
TIME_SYSTEM    = UTC
MEAN_ELEMENT_THEORY = SGP/SGP4

EPOCH          = 2025-11-27T05:37:51.330432
MEAN_MOTION    = 14.15474919
ECCENTRICITY   = .00149118
INCLINATION    = 71.0224
RA_OF_ASC_NODE = 35.3576
ARG_OF_PERICENTER = 274.7773
MEAN_ANOMALY   = 85.1647

EPHEMERIS_TYPE = 0
CLASSIFICATION_TYPE = U
NORAD_CAT_ID   = 23705
ELEMENT_SET_NO = 999
REV_AT_EPOCH   = 55335
BSTAR          = .60027609E-4
MEAN_MOTION_DOT = .7E-6
MEAN_MOTION_DDOT = 0

CCSDS_OMM_VERS = 2.0
CREATION_DATE  = 
ORIGINATOR     = 

OBJECT_NAME    = SL-16 R/B
OBJECT_ID      = 1996-051B
CENTER_NAME    = EARTH
REF_FRAME      = TEME
TIME_SYSTEM    = UTC
MEAN_ELEMENT_THEORY = SGP/SGP4

EPOCH          = 2025-11-27T04:35:04.543584
MEAN_MOTION    = 14.12394329
ECCENTRICITY   = .00189018
INCLINATION    = 70.7608
RA_OF_ASC_NODE = 32.1957
ARG_OF_PERICENTER = 280.5679
MEAN_ANOMALY   = 79.3311

EPHEMERIS_TYPE = 0
CLASSIFICATION_TYPE = U
NORAD_CAT_ID   = 24298
ELEMENT_SET_NO = 999
REV_AT_EPOCH   = 50717
BSTAR          = .14714508E-4
MEAN_MOTION_DOT = -.22E-6
MEAN_MOTION_DDOT = 0

